#dP2021  9 15  0  0  0.00000000      96 __u+U ITR00 FIT  IAC
## 2175 259200.00000000   900.00000000 59472 0.0000000000000
+  114   C06C07C08C09C10C11C12C13C14C16C19C20C21C22C23C24C25
+        C26C27C28C29C30C32C33C34C35C36C37C38C39C40C41C42C43
+        C44C45C46E01E02E03E04E05E07E08E09E11E12E13E14E15E18
+        E19E21E24E25E26E27E30E31E33E36G01G02G03G04G05G06G07
+        G08G09G10G11G12G13G14G15G16G17G18G19G20G21G22G23G24
+        G25G26G27G28G29G30G31G32R01R02R03R04R05R07R08R09R11
+        R12R13R14R15R16R17R18R19R20R21R22R24  0  0  0  0  0
++         7  8  8  8  8  6  6  8  6  8  7  7  6  7  8  7  7
++         7  7  8  8  8  8  8  7  6  7  7  8  7  8  6  7  7
++         6  8  7  7  7  6  5  6  5  6  6  6  7  6  7  6  6
++         7  6  6  6  5  7  6  6  6  7  5  6  5  6  6  6  7
++         7  7  5  6  6  6  6  7  6  5  6  5  6  5  5  6  5
++         5  5  6  7  6  7  6  5  6  6  6  5  6  6  6  7  8
++         7  6  8  7  6  7  6  6  8  6  8  6  0  0  0  0  0
%c M  cc GPS ccc cccc cccc cccc cccc ccccc ccccc ccccc ccccc
%c cc cc ccc ccc cccc cccc cccc cccc ccccc ccccc ccccc ccccc
%f  0.0000000  0.000000000  0.00000000000  0.000000000000000
%f  0.0000000  0.000000000  0.00000000000  0.000000000000000
%i    0    0    0    0      0      0      0      0         0
%i    0    0    0    0      0      0      0      0         0
/* INFORMATION & ANALYSIS CENTER (IAC)      ULTRA-RAPID DATA
/* S/V CLOCKS ARE ALIGNED TO GNSS TIME                      
/* G:C1WC2W R:C1PC2P E:C1XC5X C:C2IC6I J:C1CC2S             
/* PCV:IGS14_2163 OL/AL:FES2004  NONE     YN ORB:CoN CLK:CoN
*  2021 09 15 23 45  0.00000000
PC06 -10450.007805  23124.016575 -33700.896874    197.927360
PC07 -16224.761668  38088.408256   7518.436900   -106.998118
PC08    804.976561  34992.015215  23608.678641   -945.369457
PC09    342.002302  24587.353854 -33895.010254   -109.206883
PC10  -9766.014971  38334.710872  14142.251819      0.160865
PC11 -25945.080566   1600.140328  10143.327076    577.314119
PC12 -25042.179912  -9706.566065  -7485.206154    757.384480
PC13   6450.446540  38243.447728  16978.369250    410.416688
PC14 -21582.702884  11360.186559  13525.816276    644.148561
PC16 -13408.021858  21839.219781 -33377.394035   -807.401783
PC19  19934.586396 -18944.266499  -4776.641621    961.727686
PC20  20162.224318  -3917.700742 -18897.663238   -802.209487
PC21  -8249.001158 -14363.077731  22470.648427   -932.723979
PC22   8218.248206 -23518.117455  12595.337323   -951.990952
PC23   1124.274353  25741.260855 -10707.510586   -962.383479
PC24 -17977.166008  -8163.557921 -19709.575896   -966.096708
PC25 -11280.355518  13604.195317 -21602.045813   -854.301019
PC26 -14356.029083 -22820.243113  -7135.752451    849.541539
PC27  18629.645393  14173.693179  15165.392609    597.976544
PC28  -1280.626917  15864.109665  22924.104629    -26.022431
PC29  20091.797623  -9005.762755 -17156.050278    447.686442
PC30  27658.587339   3553.111708   -843.997808    480.748558
PC32   8332.735933  14330.170727 -22440.525732   -946.133134
PC33 -19864.846407  18968.868992   4883.441835   -968.958182
PC34 -27695.909678  -3079.114711   1634.006460   -581.184966
PC35   1204.067671 -15912.458787 -22900.620286    -90.410932
PC36  11852.745620 -12911.791479  21746.540818   -759.890846
PC37  13379.210557  23695.730446   6257.324938   -865.381511
PC38  -5813.800636  31239.672667  27795.992000    175.754234
PC39 -19750.144749  20664.638466 -31047.727521     33.254665
PC40 -22733.421075  34956.568857   5624.684110    199.817200
PC41  -8440.364710  23592.986331 -12246.835148   -937.100740
PC42 -19888.860455   3002.260393  19372.914919   -954.745461
PC43 -20615.556196   8653.880945  16700.450168   -916.187575
PC44 -18928.762653 -13707.148853 -15279.365880    392.737747
PC45  -1318.153279 -25762.804243  10628.438834    548.724874
PC46  17843.442364   6963.194914  20320.111409     83.490582
PE01   7174.241214 -28351.171039   4575.421570   -475.435096
PE02  -7068.015593  28410.062313  -4408.847139    247.084800
PE03 -12339.837820  19305.713428 -18738.005697   -475.033690
PE04  -8867.358790 -14757.210502  24080.103413   -857.527006
PE05 -26689.318528  12592.121339  -2284.903680   -249.068037
PE07  25312.860415   1370.117106 -15290.378458   -585.977118
PE08   9289.889236  14389.836630 -24145.162951   5937.061583
PE09 -25361.725066  -1038.116982  15214.308075   5530.387761
PE11 -25443.258517 -12495.446008   8519.559750   5421.321085
PE12 -16730.374423 -21827.394877 -10960.026568   5007.815034
PE13  25445.575212  12785.231238  -8089.021265    421.528265
PE14   8879.641586 -20898.402860 -23320.811238  -1572.095969
PE15  16816.961816  21746.578620  10985.784678    792.109077
PE18  -2680.410615  15158.188134  17712.494498  -1725.501948
PE19  14746.474633 -18985.912645  17270.698141    378.558792
PE21  15668.611242 -15526.344597  19746.853103   -688.140209
PE24 -15325.795695  -8063.588908 -24004.769276  -1119.869096
PE25 -15711.702225  15317.226732 -19853.134303   -546.787742
PE26  18524.610624  -4539.744604 -22641.269158   1339.393033
PE27  15590.593485   6879.641778  24216.027289   -121.263872
PE30   5528.796849  25778.742632  13468.812802   2616.737694
PE31  -6332.743326 -25068.720402 -14392.273562   -485.646862
PE33   1698.115434 -17869.466413 -23535.399778   -464.917253
PE36 -19071.141431   3667.037513  22335.664160   -262.938940
PG01 -20866.354096 -12106.022918  11210.485211    566.539229
PG02  11954.861440  21417.706630  10744.155560   -632.533419
PG03 -14296.481176  -4396.640043  21845.677748   -290.754346
PG04 -25048.145247  -1567.288612   8801.407939   -204.302882
PG05   8503.274207  17479.006177 -18192.868573    -54.548320
PG06     12.305930  18653.813900  18941.899865     75.212935
PG07 -17098.332966   2309.821626 -19951.637181    245.849045
PG08 -18296.348536  -8096.704215 -17634.385765    -36.640612
PG09 -25320.657119   7761.247690  -2268.025149   -361.009653
PG10  11661.817920 -22796.166335  -6353.411104   -204.096895
PG11   9477.700503  22698.116510  10023.837153     18.027918
PG12  13552.964430   6113.359852  21761.986988    -97.945035
PG13  10574.122751  13293.958104 -20599.782968    186.025483
PG14 -12709.334309  22485.513685  -6071.379895      0.580206
PG15  19502.666076   6793.540905 -17269.571813   -120.833692
PG16  -2947.784321 -21058.809160 -15865.043465   -391.260551
PG17 -18000.066856  13018.402512  14998.087435    505.252674
PG18  15446.241364  -4451.647608 -21171.472837    321.901657
PG19  -9656.579136  14436.838827  19772.963619     53.450021
PG20   2450.478874  25149.701508  -8632.466948    519.113725
PG21 -21345.327005 -15905.267520   4222.671343    142.907766
PG22 -12503.684606 -12514.786180  20040.718151   -512.300967
PG23  15620.763587 -14257.020520 -16046.566202     57.009388
PG24  21777.658978  14135.888781   6272.158264    235.398454
PG25  16317.447515  -5576.766212  19861.016056    208.915500
PG26   3801.637425 -25837.298316  -3971.305920    134.617780
PG27  -8154.259998 -13274.916255 -21738.101029   -193.438840
PG28  -9498.100075  24906.015405   1336.579846    500.418148
PG29  26338.047779  -3679.576813    256.378489   -412.286081
PG30  -8542.269046  13687.461489 -20997.930065   -473.249219
PG31  -1088.271661 -19831.333578  17303.838572   -139.972505
PG32  14206.231069 -15194.225462  16528.195732     -0.863478
PR01 -19150.587050  16835.851561   -439.232021     85.364819
PR02  -6296.798486  16394.510642 -18491.371376    493.438270
PR03   9582.261372   6122.931051 -22790.856013     43.016688
PR04  19718.539421  -7554.773453 -14280.427457    104.932907
PR05  18996.219017 -16863.262854   2189.148019     79.012461
PR07 -10215.903246  -5566.678237  22737.059628    -41.191075
PR08 -19792.242316   7542.587252  14282.501077    -60.961206
PR09  -3180.634474 -25174.895541   2987.959707     13.416759
PR11 -11350.100347  -2275.651943 -22715.465694     48.597848
PR12  -5958.771760  16697.907939 -18313.871335    262.295507
PR13   2773.779112  25061.564963  -3859.450435    -60.690367
PR14  10185.861104  18738.339563  13998.059348     68.845376
PR15  11372.008912   1680.131671  22797.585049    101.442289
PR16   5181.741501 -17697.203444  17546.267623    -21.492724
PR17  20325.741846  12233.745584   9445.141295    458.836010
PR18  23733.965884   5524.632453  -7458.045873     90.556265
PR19  15529.300380  -3179.950590 -19992.360109   -159.521191
PR20  -4356.415365 -12320.950318 -21907.722329    -55.964092
PR21 -20957.409275 -11952.019117  -8229.295377   -239.577370
PR22 -23563.924851  -5177.095999   8396.571811   -133.462412
PR24   5146.208442  12816.595070  21464.983985     58.794178
EOF
